IRIDIUM 112             
1 41925U 17003J   25212.96581337  .00000028  00000+0  29856-5 0  9990
2 41925  86.3949 222.0526 0002377  89.0006 271.1462 14.34217672447378
IRIDIUM 111             
1 41926U 17003K   25212.95312542  .00000085  00000+0  23156-4 0  9999
2 41926  86.3951 222.1211 0002135  91.4949 268.6492 14.34217912447358
IRIDIUM 113             
1 42803U 17039A   25212.72378691 -.00000081  00000+0 -35948-4 0  9995
2 42803  86.3950  96.1466 0002152  78.9165 281.2272 14.34217519425257
IRIDIUM 123             
1 42804U 17039B   25212.90480164  .00000119  00000+0  35580-4 0  9997
2 42804  86.3997 127.5473 0001865  84.6269 275.5140 14.34217596424046
IRIDIUM 120             
1 42805U 17039C   25212.78721231  .00000030  00000+0  36332-5 0  9996
2 42805  86.3940  95.9444 0002026  93.0126 267.1302 14.34217805425251
IRIDIUM 115             
1 42806U 17039D   25212.94875736  .00000305  00000+0  84649-4 0  9993
2 42806  86.4476  95.9618 0001453  89.2548 270.8819 14.43278014428074
IRIDIUM 118             
1 42807U 17039E   25212.79697845  .00000097  00000+0  27523-4 0  9996
2 42807  86.3994 127.5918 0002299  80.1672 279.9783 14.34218227424022
IRIDIUM 117             
1 42808U 17039F   25212.81600556  .00000381  00000+0  12894-3 0  9993
2 42808  86.3996 127.5446 0002021  80.9439 279.1985 14.34217983424050
